{
	"type": "FeatureCollection",
	"generator": "overpass-turbo",
	"copyright": "The data included in this document is from www.openstreetmap.org. The data is made available under ODbL.",
	"timestamp": "2025-09-23T03:53:43Z",
	"features": [
		{
			"type": "Feature",
			"properties": {
				"@id": "main",
				"name": "본관",
				"building": "university",
				"building:levels": 4,
				"base": 0,
				"center": [
					126.9528703,
					37.34702638
				],
				"bearing": 120,
				"floorBearing": -30,
				"floors": {
					"flLevel": 9,
					"bmLevel": 1,
					"flList": [
						0,
						0,
						0,
						0,
						1,
						1,
						1,
						1,
						1,
						1
					],
					"flVars": [
						[
							[
								[
									126.952858,
									37.3468623
								],
								[
									126.9528465,
									37.3468813
								],
								[
									126.9529122,
									37.3469103
								],
								[
									126.9530861,
									37.3469906
								],
								[
									126.9531203,
									37.3471114
								],
								[
									126.9530299,
									37.3472466
								],
								[
									126.952897,
									37.3472853
								],
								[
									126.9527275,
									37.3472192
								],
								[
									126.9527275,
									37.3472192
								],
								[
									126.9526255,
									37.3471726
								],
								[
									126.9526117,
									37.3471915
								],
								[
									126.9525499,
									37.3471657
								],
								[
									126.9525655,
									37.3471451
								],
								[
									126.952541,
									37.3471339
								],
								[
									126.952553,
									37.3471171
								],
								[
									126.9525263,
									37.3471082
								],
								[
									126.9525665,
									37.3470367
								],
								[
									126.9525459,
									37.3470283
								],
								[
									126.9526063,
									37.3469342
								],
								[
									126.9526666,
									37.3469585
								],
								[
									126.9527518,
									37.3468394
								],
								[
									126.9527808,
									37.3468522
								],
								[
									126.9527932,
									37.3468324
								],
								[
									126.9527691,
									37.3468213
								],
								[
									126.9526268,
									37.3467555
								],
								[
									126.9526161,
									37.3467224
								],
								[
									126.9526241,
									37.3466872
								],
								[
									126.9526429,
									37.3466627
								],
								[
									126.9526684,
									37.3466456
								],
								[
									126.9527163,
									37.3466417
								],
								[
									126.953401,
									37.3469543
								],
								[
									126.9533141,
									37.3470732
								],
								[
									126.9529272,
									37.3468943
								],
								[
									126.952858,
									37.3468623
								]
							]
						],
						[
							[
								[
									126.9527932,
									37.3468324
								],
								[
									126.9527691,
									37.3468213
								],
								[
									126.9526268,
									37.3467555
								],
								[
									126.9526161,
									37.3467224
								],
								[
									126.9526241,
									37.3466872
								],
								[
									126.9526429,
									37.3466627
								],
								[
									126.9526684,
									37.3466456
								],
								[
									126.9527163,
									37.3466417
								],
								[
									126.953401,
									37.3469543
								],
								[
									126.9533141,
									37.3470732
								],
								[
									126.9529272,
									37.3468943
								],
								[
									126.952858,
									37.3468623
								],
								[
									126.9527932,
									37.3468324
								]
							]
						]
					]
				}
			},
			"geometry": {
				"type": "Polygon",
				"coordinates": [
					[
						[
							126.952858,
							37.3468623
						],
						[
							126.9528465,
							37.3468813
						],
						[
							126.9529122,
							37.3469103
						],
						[
							126.9530861,
							37.3469906
						],
						[
							126.9531203,
							37.3471114
						],
						[
							126.9530299,
							37.3472466
						],
						[
							126.952897,
							37.3472853
						],
						[
							126.9527275,
							37.3472192
						],
						[
							126.9527275,
							37.3472192
						],
						[
							126.9526255,
							37.3471726
						],
						[
							126.9526117,
							37.3471915
						],
						[
							126.9525499,
							37.3471657
						],
						[
							126.9525655,
							37.3471451
						],
						[
							126.952541,
							37.3471339
						],
						[
							126.952553,
							37.3471171
						],
						[
							126.9525263,
							37.3471082
						],
						[
							126.9525665,
							37.3470367
						],
						[
							126.9525459,
							37.3470283
						],
						[
							126.9526063,
							37.3469342
						],
						[
							126.9526666,
							37.3469585
						],
						[
							126.9527518,
							37.3468394
						],
						[
							126.9527808,
							37.3468522
						],
						[
							126.9527932,
							37.3468324
						],
						[
							126.952858,
							37.3468623
						]
					]
				]
			}
		},
		{
			"type": "Feature",
			"properties": {
				"@id": "main_alt",
				"origin": "main",
				"building": "university",
				"building:levels": 9,
				"base": 0
			},
			"geometry": {
				"type": "Polygon",
				"coordinates": [
					[
						[
							126.9527932,
							37.3468324
						],
						[
							126.9527691,
							37.3468213
						],
						[
							126.9526268,
							37.3467555
						],
						[
							126.9526161,
							37.3467224
						],
						[
							126.9526241,
							37.3466872
						],
						[
							126.9526429,
							37.3466627
						],
						[
							126.9526684,
							37.3466456
						],
						[
							126.9527163,
							37.3466417
						],
						[
							126.953401,
							37.3469543
						],
						[
							126.9533141,
							37.3470732
						],
						[
							126.9529272,
							37.3468943
						],
						[
							126.952858,
							37.3468623
						],
						[
							126.9527932,
							37.3468324
						]
					]
				]
			}
		},
		{
			"type": "Feature",
			"properties": {
				"@id": "grad",
				"name": "대학원관",
				"building": "university",
				"building:levels": 7,
				"base": 0,
				"center": [
					126.9528509,
					37.3459511
				],
				"bearing": -45,
				"floorBearing": -10,
				"floors": {
					"flLevel": 7,
					"bmLevel": 0,
					"flList": [
						0,
						1,
						0,
						0,
						0,
						0,
						0
					],
					"flVars": [
						[
							[
								[
									126.9530662,
									37.3459679
								],
								[
									126.9530451,
									37.3460459
								],
								[
									126.9530856,
									37.3460518
								],
								[
									126.953063,
									37.3461505
								],
								[
									126.9526389,
									37.3460891
								],
								[
									126.9526522,
									37.346031
								],
								[
									126.9526068,
									37.3460244
								],
								[
									126.9526347,
									37.3459027
								],
								[
									126.9526816,
									37.3459104
								],
								[
									126.9530662,
									37.3459679
								]
							]
						],
						[
							[
								[
									126.9530662,
									37.3459679
								],
								[
									126.9530451,
									37.3460459
								],
								[
									126.9530856,
									37.3460518
								],
								[
									126.953063,
									37.3461505
								],
								[
									126.9526389,
									37.3460891
								],
								[
									126.9526522,
									37.346031
								],
								[
									126.9526068,
									37.3460244
								],
								[
									126.9526347,
									37.3459027
								],
								[
									126.9526816,
									37.3459104
								],
								[
									126.9527099,
									37.3457905
								],
								[
									126.9527695,
									37.3457994
								],
								[
									126.9527808,
									37.3457517
								],
								[
									126.9528358,
									37.3457599
								],
								[
									126.9528249,
									37.345806
								],
								[
									126.9530949,
									37.3458464
								],
								[
									126.9530662,
									37.3459679
								]
							]
						]
					]
				}
			},
			"geometry": {
				"type": "Polygon",
				"coordinates": [
					[
						[
							126.9530662,
							37.3459679
						],
						[
							126.9530451,
							37.3460459
						],
						[
							126.9530856,
							37.3460518
						],
						[
							126.953063,
							37.3461505
						],
						[
							126.9526389,
							37.3460891
						],
						[
							126.9526522,
							37.346031
						],
						[
							126.9526068,
							37.3460244
						],
						[
							126.9526347,
							37.3459027
						],
						[
							126.9526816,
							37.3459104
						],
						[
							126.9530662,
							37.3459679
						]
					]
				]
			}
		},
		{
			"type": "Feature",
			"properties": {
				"@id": "grad_alt",
				"origin": "grad",
				"building": "university",
				"building:levels": 2,
				"base": 1
			},
			"geometry": {
				"type": "Polygon",
				"coordinates": [
					[
						[
							126.9526816,
							37.3459104
						],
						[
							126.9527099,
							37.3457905
						],
						[
							126.9527695,
							37.3457994
						],
						[
							126.9527808,
							37.3457517
						],
						[
							126.9528358,
							37.3457599
						],
						[
							126.9528249,
							37.345806
						],
						[
							126.9530949,
							37.3458464
						],
						[
							126.9530662,
							37.3459679
						],
						[
							126.9526816,
							37.3459104
						]
					]
				]
			}
		},
		{
			"type": "Feature",
			"properties": {
				"@id": "design",
				"name": "디자인관",
				"building": "university",
				"building:levels": 7,
				"base": 0,
				"center": [
					126.95292452350259,
					37.34568909478981
				],
				"bearing": -60,
				"floorBearing": -10,
				"floors": {
					"flLevel": 7,
					"bmLevel": 0,
					"flList": [
						0,
						0,
						0,
						0,
						0,
						0,
						0
					],
					"flVars": [
						[
							[
								[
									126.952723,
									37.3457446
								],
								[
									126.9527351,
									37.345689
								],
								[
									126.9526881,
									37.3456826
								],
								[
									126.9527141,
									37.3455637
								],
								[
									126.9528812,
									37.3455868
								],
								[
									126.9528922,
									37.3455886
								],
								[
									126.9529051,
									37.3455907
								],
								[
									126.9531321,
									37.3456214
								],
								[
									126.9531144,
									37.3457025
								],
								[
									126.9531547,
									37.345708
								],
								[
									126.9531343,
									37.3458013
								],
								[
									126.9528358,
									37.3457599
								],
								[
									126.9527808,
									37.3457517
								],
								[
									126.952723,
									37.3457446
								]
							]
						]
					]
				}
			},
			"geometry": {
				"type": "Polygon",
				"coordinates": [
					[
						[
							126.952723,
							37.3457446
						],
						[
							126.9527351,
							37.345689
						],
						[
							126.9526881,
							37.3456826
						],
						[
							126.9527141,
							37.3455637
						],
						[
							126.9528812,
							37.3455868
						],
						[
							126.9528922,
							37.3455886
						],
						[
							126.9529051,
							37.3455907
						],
						[
							126.9531321,
							37.3456214
						],
						[
							126.9531144,
							37.3457025
						],
						[
							126.9531547,
							37.345708
						],
						[
							126.9531343,
							37.3458013
						],
						[
							126.9528358,
							37.3457599
						],
						[
							126.9527808,
							37.3457517
						],
						[
							126.952723,
							37.3457446
						]
					]
				]
			}
		},
		{
			"type": "Feature",
			"properties": {
				"@id": "gemi",
				"name": "게미관",
				"building": "university",
				"building:levels": 6,
				"base": 0,
				"center": [
					126.95295976102352,
					37.34537556174354
				],
				"bearing": -120,
				"floorBearing": -10,
				"floors": {
					"flLevel": 6,
					"bmLevel": 0,
					"flList": [
						0,
						0,
						0,
						0,
						0,
						0
					],
					"flVars": [
						[
							[
								[
									126.9528107,
									37.3454346
								],
								[
									126.9528257,
									37.3453662
								],
								[
									126.9528428,
									37.3453686
								],
								[
									126.9528235,
									37.3452536
								],
								[
									126.9530901,
									37.3452253
								],
								[
									126.95311,
									37.345344
								],
								[
									126.9531985,
									37.3453563
								],
								[
									126.9531661,
									37.3455036
								],
								[
									126.9529344,
									37.3454715
								],
								[
									126.9529225,
									37.3454698
								],
								[
									126.9529108,
									37.3454682
								],
								[
									126.9528627,
									37.3454615
								],
								[
									126.9528669,
									37.3454424
								],
								[
									126.9528107,
									37.3454346
								]
							]
						]
					]
				}
			},
			"geometry": {
				"type": "Polygon",
				"coordinates": [
					[
						[
							126.9528107,
							37.3454346
						],
						[
							126.9528257,
							37.3453662
						],
						[
							126.9528428,
							37.3453686
						],
						[
							126.9528235,
							37.3452536
						],
						[
							126.9530901,
							37.3452253
						],
						[
							126.95311,
							37.345344
						],
						[
							126.9531985,
							37.3453563
						],
						[
							126.9531661,
							37.3455036
						],
						[
							126.9529344,
							37.3454715
						],
						[
							126.9529225,
							37.3454698
						],
						[
							126.9529108,
							37.3454682
						],
						[
							126.9528627,
							37.3454615
						],
						[
							126.9528669,
							37.3454424
						],
						[
							126.9528107,
							37.3454346
						]
					]
				]
			}
		},
		{
			"type": "Feature",
			"properties": {
				"@id": "music",
				"name": "음악관",
				"building": "university",
				"building:levels": 5,
				"base": 0,
				"center": [
					126.95348292589188,
					37.34506178751063
				],
				"bearing": -135,
				"floorBearing": -5,
				"floors": {
					"flLevel": 5,
					"bmLevel": 2,
					"flList": [
						0,
						0,
						0,
						0,
						0,
						0,
						0
					],
					"flVars": [
						[
							[
								[
									126.9531216,
									37.3451291
								],
								[
									126.9531362,
									37.3449566
								],
								[
									126.9538441,
									37.3449945
								],
								[
									126.9538295,
									37.3451671
								],
								[
									126.9531216,
									37.3451291
								]
							]
						]
					]
				}
			},
			"geometry": {
				"type": "Polygon",
				"coordinates": [
					[
						[
							126.9531216,
							37.3451291
						],
						[
							126.9531362,
							37.3449566
						],
						[
							126.9538441,
							37.3449945
						],
						[
							126.9538295,
							37.3451671
						],
						[
							126.9531216,
							37.3451291
						]
					]
				]
			}
		},
		{
			"type": "Feature",
			"properties": {
				"@id": "rodem",
				"name": "로뎀관",
				"building": "dormitory",
				"building:levels": 2,
				"base": 0,
				"center": [
					126.95386846948948,
					37.34415384000415
				],
				"bearing": -90,
				"floorBearing": 0,
				"floors": {
					"flLevel": 2,
					"bmLevel": 0,
					"flList": [
						0,
						0
					],
					"flVars": [
						[
							[
								[
									126.9537632,
									37.3443113
								],
								[
									126.9537693,
									37.3442114
								],
								[
									126.95386241,
									37.34421485
								],
								[
									126.95386324,
									37.34420016
								],
								[
									126.9537934,
									37.3441972
								],
								[
									126.95380202,
									37.34408815
								],
								[
									126.95387218,
									37.34409103
								],
								[
									126.9538731,
									37.34407673
								],
								[
									126.953624,
									37.344068
								],
								[
									126.9536298,
									37.3439726
								],
								[
									126.9539786,
									37.3439862
								],
								[
									126.9539728,
									37.3440802
								],
								[
									126.953953,
									37.3440794
								],
								[
									126.95394335,
									37.34421756
								],
								[
									126.95410733,
									37.34422294
								],
								[
									126.9541012,
									37.3443244
								],
								[
									126.9537632,
									37.3443113
								]
							]
						]
					]
				}
			},
			"geometry": {
				"type": "Polygon",
				"coordinates": [
					[
						[
							126.9537632,
							37.3443113
						],
						[
							126.9537693,
							37.3442114
						],
						[
							126.9538598,
							37.3442149
						],
						[
							126.9538608,
							37.3441991
						],
						[
							126.9537934,
							37.3441972
						],
						[
							126.9538006,
							37.3440766
						],
						[
							126.953624,
							37.344068
						],
						[
							126.9536298,
							37.3439726
						],
						[
							126.9539786,
							37.3439862
						],
						[
							126.9539728,
							37.3440802
						],
						[
							126.953953,
							37.3440794
						],
						[
							126.9539448,
							37.344213
						],
						[
							126.9541077,
							37.3442193
						],
						[
							126.9541012,
							37.3443244
						],
						[
							126.9537632,
							37.3443113
						]
					]
				]
			}
		},
		{
			"type": "Feature",
			"properties": {
				"@id": "visionCentre",
				"name": "영상비전센터",
				"building": "university",
				"building:levels": 10,
				"base": 3,
				"center": [
					126.9532423093915,
					37.34386020030255
				],
				"bearing": 180,
				"floorBearing": 0,
				"floors": {
					"flLevel": 10,
					"bmLevel": 0,
					"flList": [
						0,
						1,
						2,
						2,
						2,
						2,
						2,
						2,
						2,
						2
					],
					"flVars": [
						[
							[
								[
									126.9530891,
									37.34390879
								],
								[
									126.953092,
									37.34381394
								],
								[
									126.95306928,
									37.34381347
								],
								[
									126.95307062,
									37.34373936
								],
								[
									126.95336864,
									37.34374546
								],
								[
									126.9533689,
									37.34373594
								],
								[
									126.95346041,
									37.34373725
								],
								[
									126.95345965,
									37.34376915
								],
								[
									126.95350808,
									37.34377018
								],
								[
									126.9535009,
									37.34401624
								],
								[
									126.9534007,
									37.344014
								],
								[
									126.95340266,
									37.34397027
								],
								[
									126.95335972,
									37.34396915
								],
								[
									126.9532671,
									37.34394394
								],
								[
									126.95326802,
									37.34391207
								],
								[
									126.9530891,
									37.34390879
								]
							]
						],
						[
							[
								[
									126.95306595251789,
									37.34397691048371
								],
								[
									126.95306928,
									37.34381347
								],
								[
									126.95307062,
									37.34373936
								],
								[
									126.95341664258721,
									37.343746206966166
								],
								[
									126.9534157697807,
									37.343803095001
								],
								[
									126.95345807875921,
									37.343803909207885
								],
								[
									126.95345965,
									37.34376915
								],
								[
									126.95350808,
									37.34377018
								],
								[
									126.95350217437633,
									37.34391461107071
								],
								[
									126.95349329321276,
									37.34391461107071
								],
								[
									126.95349486047692,
									37.34386311018363
								],
								[
									126.95341493000466,
									37.34386144886409
								],
								[
									126.95341179547631,
									37.34398147910531
								],
								[
									126.95306595251789,
									37.34397691048371
								]
							]
						],
						[
							[
								[
									126.9530891,
									37.34390879
								],
								[
									126.9530932,
									37.3437689
								],
								[
									126.953508,
									37.3437766
								],
								[
									126.9535038,
									37.3439164
								],
								[
									126.9530891,
									37.34390879
								]
							]
						]
					]
				}
			},
			"geometry": {
				"type": "Polygon",
				"coordinates": [
					[
						[
							126.9531297,
							37.3439094
						],
						[
							126.9531301,
							37.3438952
						],
						[
							126.9530895,
							37.3438945
						],
						[
							126.9530932,
							37.3437689
						],
						[
							126.953508,
							37.3437766
						],
						[
							126.9535038,
							37.3439164
						],
						[
							126.9531297,
							37.3439094
						]
					]
				]
			}
		},
		{
			"type": "Feature",
			"properties": {
				"@id": "visionCentre_alt",
				"origin": "visionCentre",
				"building": "university",
				"building:levels": 3,
				"base": 0
			},
			"geometry": {
				"type": "Polygon",
				"coordinates": [
					[
						[
							126.95306595251789,
							37.34397691048371
						],
						[
							126.95306928,
							37.34381347
						],
						[
							126.95307062,
							37.34373936
						],
						[
							126.95341664258721,
							37.343746206966166
						],
						[
							126.9534157697807,
							37.343803095001
						],
						[
							126.95345807875921,
							37.343803909207885
						],
						[
							126.95345965,
							37.34376915
						],
						[
							126.95350808,
							37.34377018
						],
						[
							126.9535009,
							37.34401624
						],
						[
							126.9534007,
							37.344014
						],
						[
							126.95340266,
							37.34398027
						],
						[
							126.95306595251789,
							37.34397691048371
						]
					]
				]
			}
		},
		{
			"type": "Feature",
			"properties": {
				"@id": "stem",
				"name": "이공관",
				"building": "university",
				"building:levels": 4,
				"base": 0,
				"center": [
					126.95370529778302,
					37.34362930298334
				],
				"bearing": -30,
				"floorBearing": -2,
				"floors": {
					"flLevel": 4,
					"bmLevel": 0,
					"flList": [
						0,
						0,
						0,
						0
					],
					"flVars": [
						[
							[
								[
									126.9535336,
									37.3436932
								],
								[
									126.9535478,
									37.3434431
								],
								[
									126.9536697,
									37.3434475
								],
								[
									126.9536596,
									37.34362516
								],
								[
									126.95368027,
									37.34362563
								],
								[
									126.95367896,
									37.34364514
								],
								[
									126.954005,
									37.3436568
								],
								[
									126.9540007,
									37.3437338
								],
								[
									126.9536125,
									37.3437199
								],
								[
									126.9536139,
									37.3436961
								],
								[
									126.9535336,
									37.3436932
								],
								[
									126.9535336,
									37.3436932
								],
								[
									126.9535336,
									37.3436932
								],
								[
									126.9535336,
									37.3436932
								]
							]
						]
					]
				}
			},
			"geometry": {
				"type": "Polygon",
				"coordinates": [
					[
						[
							126.9535336,
							37.3436932
						],
						[
							126.9535478,
							37.3434431
						],
						[
							126.9536697,
							37.3434475
						],
						[
							126.9536596,
							37.34362516
						],
						[
							126.95368027,
							37.34362563
						],
						[
							126.95367896,
							37.34364514
						],
						[
							126.954005,
							37.3436568
						],
						[
							126.9540007,
							37.3437338
						],
						[
							126.9536125,
							37.3437199
						],
						[
							126.9536139,
							37.3436961
						],
						[
							126.9535336,
							37.3436932
						],
						[
							126.9535336,
							37.3436932
						],
						[
							126.9535336,
							37.3436932
						],
						[
							126.9535336,
							37.3436932
						]
					]
				]
			}
		},
		{
			"type": "Feature",
			"properties": {
				"@id": "council",
				"name": "학생회관",
				"building": "university",
				"building:levels": 3,
				"base": 0,
				"center": [
					126.95441884920001,
					37.34357139523682
				],
				"bearing": 90,
				"floorBearing": 85,
				"floors": {
					"flLevel": 3,
					"bmLevel": 1,
					"flList": [
						0,
						0,
						0,
						0
					],
					"flVars": [
						[
							[
								[
									126.954255,
									37.3437127
								],
								[
									126.9542775,
									37.3434155
								],
								[
									126.9545827,
									37.3434301
								],
								[
									126.9545602,
									37.3437274
								],
								[
									126.954255,
									37.3437127
								]
							]
						]
					]
				}
			},
			"geometry": {
				"type": "Polygon",
				"coordinates": [
					[
						[
							126.954255,
							37.3437127
						],
						[
							126.9542775,
							37.3434155
						],
						[
							126.9545827,
							37.3434301
						],
						[
							126.9545602,
							37.3437274
						],
						[
							126.954255,
							37.3437127
						]
					]
				]
			}
		},
		{
			"type": "Feature",
			"properties": {
				"@id": "theology",
				"name": "신학관",
				"building": "university",
				"building:levels": 5,
				"base": 0,
				"center": [
					126.95395868271589,
					37.343143183662114
				],
				"bearing": 180,
				"floorBearing": -3,
				"floors": {
					"flLevel": 5,
					"bmLevel": 0,
					"flList": [
						0,
						0,
						0,
						0,
						0
					],
					"flVars": [
						[
							[
								[
									126.9536809,
									37.3432074
								],
								[
									126.9536915,
									37.3430552
								],
								[
									126.9542363,
									37.3430791
								],
								[
									126.9542257,
									37.3432314
								],
								[
									126.9536809,
									37.3432074
								]
							]
						]
					]
				}
			},
			"geometry": {
				"type": "Polygon",
				"coordinates": [
					[
						[
							126.9536809,
							37.3432074
						],
						[
							126.9536915,
							37.3430552
						],
						[
							126.9542363,
							37.3430791
						],
						[
							126.9542257,
							37.3432314
						],
						[
							126.9536809,
							37.3432074
						]
					]
				]
			}
		},
		{
			"type": "Feature",
			"properties": {
				"@id": "vision",
				"name": "비전관",
				"building": "university",
				"building:levels": 6,
				"base": 0,
				"center": [
					126.95351142436266,
					37.342909151946564
				],
				"bearing": -135,
				"floorBearing": 52,
				"floors": {
					"flLevel": 6,
					"bmLevel": 0,
					"flList": [
						0,
						0,
						0,
						0,
						0,
						0
					],
					"flVars": [
						[
							[
								[
									126.9532444,
									37.3430842
								],
								[
									126.9536608,
									37.3426575
								],
								[
									126.9537785,
									37.3427356
								],
								[
									126.9533621,
									37.3431593
								],
								[
									126.9532444,
									37.3430842
								]
							]
						]
					]
				}
			},
			"geometry": {
				"type": "Polygon",
				"coordinates": [
					[
						[
							126.9532444,
							37.3430842
						],
						[
							126.9536608,
							37.3426575
						],
						[
							126.9537785,
							37.3427356
						],
						[
							126.9533621,
							37.3431593
						],
						[
							126.9532444,
							37.3430842
						]
					]
				]
			}
		}
	]
}